NORAD_CAT_ID,OBJECT_NAME,OBJECT_TYPE,EPOCH,MEAN_MOTION,ECCENTRICITY,INCLINATION,RA_OF_ASC_NODE,ARG_OF_PERICENTER,MEAN_ANOMALY,BSTAR,MEAN_MOTION_DOT,MEAN_MOTION_DDOT,TLE_LINE0,TLE_LINE1,TLE_LINE2,SEMIMAJOR_AXIS,PERIOD,APOGEE,PERIGEE,DECAYED
50185.0,STARLINK-3279,PAYLOAD,2022-05-04 14:00:01,15.08873225,0.0002251,53.2189,76.8828,39.2693,290.7676,-0.0024614,-0.00039285,0.0,0 STARLINK-3279,1 50185U 21125AF  22124.58334491 -.00039285  00000-0 -24614-2 0  9996,2 50185  53.2189  76.8828 0002251  39.2693 290.7676 15.08873225  3595,6917.779,95.435,541.201,538.087,0.0
50185.0,STARLINK-3279,PAYLOAD,2022-05-04 22:00:01,15.08851099,0.0002186,53.2192,75.3861,41.9696,299.7484,-0.00025165,-4.292e-05,0.0,0 STARLINK-3279,1 50185U 21125AF  22124.91668981 -.00004292  00000-0 -25165-3 0  9990,2 50185  53.2192  75.3861 0002186  41.9696 299.7484 15.08851099  3603,6917.846,95.437,541.224,538.1990000000002,0.0
50185.0,STARLINK-3279,PAYLOAD,2022-05-05 06:00:00,15.08835355,0.0002381,53.2192,73.8917,37.2004,316.0617,0.0010847,0.00017015,0.0,0 STARLINK-3279,1 50185U 21125AF  22125.25001157  .00017015  00000-0  10847-2 0  9999,2 50185  53.2192  73.8917 0002381  37.2004 316.0617 15.08835355 24102,6917.895,95.438,541.4069999999998,538.112,0.0
50185.0,STARLINK-3279,PAYLOAD,2022-05-05 14:00:01,15.0883785,0.0002209,53.2193,72.3939,37.4116,327.4536,-0.00071143,-0.00011593,0.0,0 STARLINK-3279,1 50185U 21125AF  22125.58334491 -.00011593  00000-0 -71143-3 0  9999,2 50185  53.2193  72.3939 0002209  37.4116 327.4536 15.08837850  3572,6917.887,95.438,541.28,538.224,0.0
50185.0,STARLINK-3279,PAYLOAD,2022-05-05 22:00:00,15.08849356,0.0002159,53.2196,70.8977,38.7551,337.6905,-0.0027778,-0.00044238,0.0,0 STARLINK-3279,1 50185U 21125AF  22125.91667824 -.00044238  00000-0 -27778-2 0  9991,2 50185  53.2196  70.8977 0002159  38.7551 337.6905 15.08849356 24201,6917.852,95.437,541.21,538.2230000000002,0.0
50185.0,STARLINK-3279,PAYLOAD,2022-05-06 14:00:01,15.08828112,0.0002207,53.2197,67.9052,37.2259,2.3812,0.00026029,3.855e-05,0.0,0 STARLINK-3279,1 50185U 21125AF  22126.58334491  .00003855  00000-0  26029-3 0  9993,2 50185  53.2197  67.9052 0002207  37.2259   2.3812 15.08828112 24307,6917.917,95.438,541.309,538.255,0.0
50185.0,STARLINK-3279,PAYLOAD,2022-05-07 14:00:01,15.08838894,0.0002181,53.22,63.4162,37.7587,36.6378,-0.00060721,-9.939e-05,0.0,0 STARLINK-3279,1 50185U 21125AF  22127.58334491 -.00009939  00000-0 -60721-3 0  9992,2 50185  53.2200  63.4162 0002181  37.7587  36.6378 15.08838894  3600,6917.884,95.438,541.258,538.24,0.0
50185.0,STARLINK-3279,PAYLOAD,2022-05-07 22:00:00,15.08853964,0.000219,53.2202,61.9202,39.275,46.7049,-0.00076975,-0.00012523,0.0,0 STARLINK-3279,1 50185U 21125AF  22127.91667824 -.00012523  00000-0 -76975-3 0  9999,2 50185  53.2202  61.9202 0002190  39.2750  46.7049 15.08853964 24503,6917.8380000000025,95.437,541.2180000000002,538.188,0.0
50185.0,STARLINK-3279,PAYLOAD,2022-05-08 14:00:01,15.08821082,0.0002096,53.2201,58.9274,36.9697,72.2227,0.0006624,0.00010264,0.0,0 STARLINK-3279,1 50185U 21125AF  22128.58334491  .00010264  00000-0  66240-3 0  9996,2 50185  53.2201  58.9274 0002096  36.9697  72.2227 15.08821082  3602,6917.938,95.439,541.253,538.3530000000002,0.0
50185.0,STARLINK-3279,PAYLOAD,2022-05-08 22:00:00,15.08852348,0.0002132,53.2203,57.4315,38.8826,81.8859,-0.0010622,-0.0001716,0.0,0 STARLINK-3279,1 50185U 21125AF  22128.91667824 -.00017160  00000-0 -10622-2 0  9998,2 50185  53.2203  57.4315 0002132  38.8826  81.8859 15.08852348  3606,6917.843000000003,95.437,541.183,538.2330000000002,0.0
50185.0,STARLINK-3279,PAYLOAD,2022-05-09 06:00:00,15.08826581,0.0002289,53.2198,55.9365,34.639,97.7349,0.0022916,0.00036359,0.0,0 STARLINK-3279,1 50185U 21125AF  22129.25001157  .00036359  00000-0  22916-2 0  9995,2 50185  53.2198  55.9365 0002289  34.6390  97.7349 15.08826581 24704,6917.920999999999,95.438,541.37,538.203,0.0
50185.0,STARLINK-3279,PAYLOAD,2022-05-09 14:00:01,15.08826859,0.0002019,53.2198,54.4384,37.0185,107.0287,0.00066415,0.00010294,0.0,0 STARLINK-3279,1 50185U 21125AF  22129.58335648  .00010294  00000-0  66415-3 0  9999,2 50185  53.2198  54.4384 0002019  37.0185 107.0287 15.08826859  3609,6917.920999999999,95.438,541.182,538.389,0.0
50185.0,STARLINK-3279,PAYLOAD,2022-05-09 22:00:00,15.08857385,0.0002049,53.22,52.9427,38.4476,117.1207,-0.00089505,-0.00014512,0.0,0 STARLINK-3279,1 50185U 21125AF  22129.91667824 -.00014512  00000-0 -89505-3 0  9994,2 50185  53.2200  52.9427 0002049  38.4476 117.1207 15.08857385  3595,6917.8269999999975,95.436,541.11,538.275,0.0
50185.0,STARLINK-3279,PAYLOAD,2022-05-10 00:00:00,15.08853468,0.0002113,53.2198,52.5692,37.0988,211.3733,-0.00060887,-9.969e-05,0.0,0 STARLINK-3279,1 50185U 21125AF  22130.00001157 -.00009969  00000-0 -60887-3 0  9999,2 50185  53.2198  52.5692 0002113  37.0988 211.3733 15.08853468 24813,6917.839,95.437,541.1659999999998,538.242,0.0
50185.0,STARLINK-3279,PAYLOAD,2022-05-10 14:00:01,15.08820705,0.0001997,53.2195,49.9496,37.4584,141.3134,0.00060461,9.342e-05,0.0,0 STARLINK-3279,1 50185U 21125AF  22130.58334491  .00009342  00000-0  60461-3 0  9993,2 50185  53.2195  49.9496 0001997  37.4584 141.3134 15.08820705  3594,6917.939,95.439,541.186,538.423,0.0
50185.0,STARLINK-3279,PAYLOAD,2022-05-10 18:00:00,15.08825769,0.0002017,53.2197,49.2012,40.8766,323.6790000000001,-0.00050721,-8.348e-05,0.0,0 STARLINK-3279,1 50185U 21125AF  22130.75001157 -.00008348  00000-0 -50721-3 0  9997,2 50185  53.2197  49.2012 0002017  40.8766 323.6790 15.08825769 24936,6917.924,95.438,541.184,538.394,0.0
50185.0,STARLINK-3279,PAYLOAD,2022-05-11 22:00:00,15.08847589,0.000221,53.2196,43.9655,43.0002,182.0535,-0.0010229,-0.00016535,0.0,0 STARLINK-3279,1 50185U 21125AF  22131.91667824 -.00016535  00000-0 -10229-2 0  9990,2 50185  53.2196  43.9655 0002210  43.0002 182.0535 15.08847589 25100,6917.857,95.437,541.251,538.193,0.0
50185.0,STARLINK-3279,PAYLOAD,2022-05-12 14:00:01,15.08847767,0.0002144,53.2196,40.9719,43.0756,205.189,0.00096782,0.00015152,0.0,0 STARLINK-3279,1 50185U 21125AF  22132.58334491  .00015152  00000-0  96782-3 0  9996,2 50185  53.2196  40.9719 0002144  43.0756 205.1890 15.08847767  1305,6917.857,95.437,541.205,538.238,0.0
50185.0,STARLINK-3279,PAYLOAD,2022-05-12 20:00:01,15.0886451,0.0002185,53.22,39.8502,43.9686,123.0034,-0.0012696,-0.00020451,0.0,0 STARLINK-3279,1 50185U 21125AF  22132.83334491 -.00020451  00000-0 -12696-2 0  9995,2 50185  53.2200  39.8502 0002185  43.9686 123.0034 15.08864510 25246,6917.805,95.436,541.182,538.159,0.0
50185.0,STARLINK-3279,PAYLOAD,2022-05-12 22:00:00,15.08857083,0.0002231,53.2199,39.4767,42.2579,217.6208,-0.00072189,-0.00011765,0.0,0 STARLINK-3279,1 50185U 21125AF  22132.91667824 -.00011765  00000-0 -72189-3 0  9995,2 50185  53.2199  39.4767 0002231  42.2579 217.6208 15.08857083  1308,6917.828,95.436,541.237,538.15,0.0
50185.0,STARLINK-3279,PAYLOAD,2022-05-13 14:00:01,15.0880421,0.0002066,53.2201,36.483,39.283,243.8195,0.0015126,0.00023844,0.0,0 STARLINK-3279,1 50185U 21125AF  22133.58334491  .00023844  00000-0  15126-2 0  9996,2 50185  53.2201  36.4830 0002066  39.2830 243.8195 15.08804210  1302,6917.99,95.44,541.284,538.4259999999998,0.0
50185.0,STARLINK-3279,PAYLOAD,2022-05-13 22:00:00,15.08830143,0.0002178,53.2203,34.988,38.8235,255.8392,-0.00087746,-0.00014222,0.0,0 STARLINK-3279,1 50185U 21125AF  22133.91667824 -.00014222  00000-0 -87746-3 0  9992,2 50185  53.2203  34.9880 0002178  38.8235 255.8392 15.08830143 25403,6917.911,95.438,541.2819999999998,538.269,0.0
50185.0,STARLINK-3279,PAYLOAD,2022-05-14 14:00:01,15.08839177,0.0002069,53.2207,31.9945,39.8243,278.0264,0.0016457,0.00026,0.0,0 STARLINK-3279,1 50185U 21125AF  22134.58334491  .00026000  00000-0  16457-2 0  9992,2 50185  53.2207  31.9945 0002069  39.8243 278.0264 15.08839177  1309,6917.8830000000025,95.438,541.179,538.317,0.0
50185.0,STARLINK-3279,PAYLOAD,2022-05-14 16:00:00,15.08849987,0.0002074,53.2207,31.6203,40.9219,9.8266,0.00054325,8.371e-05,0.0,0 STARLINK-3279,1 50185U 21125AF  22134.66667824  .00008371  00000-0  54325-3 0  9998,2 50185  53.2207  31.6203 0002074  40.9219   9.8266 15.08849987 25527,6917.85,95.437,541.15,538.28,0.0
50185.0,STARLINK-3279,PAYLOAD,2022-05-14 22:00:00,15.08849024,0.0002197,53.2203,30.4995,38.0309,291.4227,-0.00051412,-8.463e-05,0.0,0 STARLINK-3279,1 50185U 21125AF  22134.91667824 -.00008463  00000-0 -51412-3 0  9994,2 50185  53.2203  30.4995 0002197  38.0309 291.4227 15.08849024  1300,6917.853,95.437,541.238,538.198,0.0
50185.0,STARLINK-3279,PAYLOAD,2022-05-15 14:00:01,15.08822256,0.0001956,53.2189,27.5058,37.0521,315.6907,0.00099146,0.00015519,0.0,0 STARLINK-3279,1 50185U 21125AF  22135.58335648  .00015519  00000-0  99146-3 0  9998,2 50185  53.2189  27.5058 0001956  37.0521 315.6907 15.08822256 25664,6917.935,95.439,541.153,538.446,0.0
50185.0,STARLINK-3279,PAYLOAD,2022-05-15 22:00:00,15.08835504,0.0002077,53.2196,26.0112,33.7269,330.511,-0.00032184,-5.406e-05,0.0,0 STARLINK-3279,1 50185U 21125AF  22135.91667824 -.00005406  00000-0 -32184-3 0  9994,2 50185  53.2196  26.0112 0002077  33.7269 330.5110 15.08835504  1301,6917.894,95.438,541.196,538.322,0.0
50185.0,STARLINK-3279,PAYLOAD,2022-05-16 14:00:01,15.08795884,0.0001966,53.2188,23.0172,38.299,349.1132,0.0030712,0.00048871,0.0,0 STARLINK-3279,1 50185U 21125AF  22136.58334491  .00048871  00000-0  30712-2 0  9994,2 50185  53.2188  23.0172 0001966  38.2990 349.1132 15.08795884 25810,6918.015,95.44,541.24,538.52,0.0
50185.0,STARLINK-3279,PAYLOAD,2022-05-16 22:00:00,15.08836557,0.0002095,53.2188,21.5225,35.5536,3.4397,-0.0019641,-0.00031409,0.0,0 STARLINK-3279,1 50185U 21125AF  22136.91667824 -.00031409  00000-0 -19641-2 0  9999,2 50185  53.2188  21.5225 0002095  35.5536   3.4397 15.08836557  1306,6917.891,95.438,541.205,538.307,0.0
